NAVSTAR 46 (USA 145)    
1 25933U 99055A   25327.39254191 -.00000051  00000+0  00000+0 0  9998
2 25933  51.6509 304.4652 0109216 169.7429 193.2521  2.00573081191450
NAVSTAR 47 (USA 150)    
1 26360U 00025A   25325.32273347 -.00000082  00000+0  00000+0 0  9991
2 26360  55.0328  27.7044 0038628 239.8927 233.5364  2.00569640187108
NAVSTAR 48 (USA 151)    
1 26407U 00040A   25327.59889417  .00000029  00000+0  00000+0 0  9992
2 26407  54.8956 223.3302 0127065 301.4550 215.0976  2.00567705185828
NAVSTAR 49 (USA 154)    
1 26605U 00071A   25327.23508255  .00000027  00000+0  00000+0 0  9993
2 26605  55.5087 103.0939 0168105 264.1072 271.5722  2.00574669183387
NAVSTAR 51 (USA 166)    
1 27663U 03005A   25327.94339412  .00000028  00000+0  00000+0 0  9994
2 27663  54.9284 223.1260 0146685  51.5319 129.4161  2.00571946167190
NAVSTAR 52 (USA 168)    
1 27704U 03010A   25327.97222773 -.00000064  00000+0  00000+0 0  9991
2 27704  54.9311 332.9299 0004803 298.6998  71.4980  1.94743174165920
NAVSTAR 53 (USA 175)    
1 28129U 03058A   25326.49215959 -.00000078  00000+0  00000+0 0  9994
2 28129  54.8982  30.9288 0002276 291.7639  68.2670  1.92678602160483
NAVSTAR 54 (USA 177)    
1 28190U 04009A   25327.87104972 -.00000027  00000+0  00000+0 0  9998
2 28190  55.0031 283.9796 0108051 167.3269 120.8499  2.00561542158821
NAVSTAR 55 (USA 178)    
1 28361U 04023A   25327.22000875  .00000013  00000+0  00000+0 0  9994
2 28361  54.7226  95.0392 0155654 295.5258  59.4104  2.00571767156907
NAVSTAR 56 (USA 180)    
1 28474U 04045A   25327.36836946 -.00000065  00000+0  00000+0 0  9992
2 28474  55.2501 333.1855 0170272 308.4251  36.3985  2.00568690154296
NAVSTAR 57 (USA 183)    
1 28874U 05038A   25327.97125728 -.00000024  00000+0  00000+0 0  9990
2 28874  55.0510 281.4568 0133085 293.1855  86.2536  2.00549545147729
NAVSTAR 58 (USA 190)    
1 29486U 06042A   25327.24233832  .00000076  00000+0  00000+0 0  9998
2 29486  54.6913 159.5147 0107349  51.4820  65.2707  2.00554901140261
