[
    {
        "OBJECT_NAME": "NAVSTAR 46 (USA 145)",
        "OBJECT_ID": "1999-055A",
        "EPOCH": "2025-11-23T09:25:15.621024",
        "MEAN_MOTION": 2.00573081,
        "ECCENTRICITY": 0.0109216,
        "INCLINATION": 51.6509,
        "RA_OF_ASC_NODE": 304.4652,
        "ARG_OF_PERICENTER": 169.7429,
        "MEAN_ANOMALY": 193.2521,
        "EPHEMERIS_TYPE": 0,
        "CLASSIFICATION_TYPE": "U",
        "NORAD_CAT_ID": 25933,
        "ELEMENT_SET_NO": 999,
        "REV_AT_EPOCH": 19145,
        "BSTAR": 0,
        "MEAN_MOTION_DOT": -5.1e-07,
        "MEAN_MOTION_DDOT": 0
    },
    {
        "OBJECT_NAME": "NAVSTAR 47 (USA 150)",
        "OBJECT_ID": "2000-025A",
        "EPOCH": "2025-11-21T07:44:44.171808",
        "MEAN_MOTION": 2.0056964,
        "ECCENTRICITY": 0.00386284,
        "INCLINATION": 55.0328,
        "RA_OF_ASC_NODE": 27.7044,
        "ARG_OF_PERICENTER": 239.8927,
        "MEAN_ANOMALY": 233.5364,
        "EPHEMERIS_TYPE": 0,
        "CLASSIFICATION_TYPE": "U",
        "NORAD_CAT_ID": 26360,
        "ELEMENT_SET_NO": 999,
        "REV_AT_EPOCH": 18710,
        "BSTAR": 0,
        "MEAN_MOTION_DOT": -8.2e-07,
        "MEAN_MOTION_DDOT": 0
    },
    {
        "OBJECT_NAME": "NAVSTAR 48 (USA 151)",
        "OBJECT_ID": "2000-040A",
        "EPOCH": "2025-11-23T14:22:24.456288",
        "MEAN_MOTION": 2.00567705,
        "ECCENTRICITY": 0.0127065,
        "INCLINATION": 54.8956,
        "RA_OF_ASC_NODE": 223.3302,
        "ARG_OF_PERICENTER": 301.455,
        "MEAN_ANOMALY": 215.0976,
        "EPHEMERIS_TYPE": 0,
        "CLASSIFICATION_TYPE": "U",
        "NORAD_CAT_ID": 26407,
        "ELEMENT_SET_NO": 999,
        "REV_AT_EPOCH": 18582,
        "BSTAR": 0,
        "MEAN_MOTION_DOT": 2.9e-07,
        "MEAN_MOTION_DDOT": 0
    },
    {
        "OBJECT_NAME": "NAVSTAR 49 (USA 154)",
        "OBJECT_ID": "2000-071A",
        "EPOCH": "2025-11-23T05:38:31.132320",
        "MEAN_MOTION": 2.00574669,
        "ECCENTRICITY": 0.01681056,
        "INCLINATION": 55.5087,
        "RA_OF_ASC_NODE": 103.0939,
        "ARG_OF_PERICENTER": 264.1072,
        "MEAN_ANOMALY": 271.5722,
        "EPHEMERIS_TYPE": 0,
        "CLASSIFICATION_TYPE": "U",
        "NORAD_CAT_ID": 26605,
        "ELEMENT_SET_NO": 999,
        "REV_AT_EPOCH": 18338,
        "BSTAR": 0,
        "MEAN_MOTION_DOT": 2.7e-07,
        "MEAN_MOTION_DDOT": 0
    },
    {
        "OBJECT_NAME": "NAVSTAR 51 (USA 166)",
        "OBJECT_ID": "2003-005A",
        "EPOCH": "2025-11-23T22:38:29.251968",
        "MEAN_MOTION": 2.00571946,
        "ECCENTRICITY": 0.0146685,
        "INCLINATION": 54.9284,
        "RA_OF_ASC_NODE": 223.126,
        "ARG_OF_PERICENTER": 51.5319,
        "MEAN_ANOMALY": 129.4161,
        "EPHEMERIS_TYPE": 0,
        "CLASSIFICATION_TYPE": "U",
        "NORAD_CAT_ID": 27663,
        "ELEMENT_SET_NO": 999,
        "REV_AT_EPOCH": 16719,
        "BSTAR": 0,
        "MEAN_MOTION_DOT": 2.8e-07,
        "MEAN_MOTION_DDOT": 0
    },
    {
        "OBJECT_NAME": "NAVSTAR 52 (USA 168)",
        "OBJECT_ID": "2003-010A",
        "EPOCH": "2025-11-23T23:20:00.475872",
        "MEAN_MOTION": 1.94743174,
        "ECCENTRICITY": 0.0004803,
        "INCLINATION": 54.9311,
        "RA_OF_ASC_NODE": 332.9299,
        "ARG_OF_PERICENTER": 298.6998,
        "MEAN_ANOMALY": 71.498,
        "EPHEMERIS_TYPE": 0,
        "CLASSIFICATION_TYPE": "U",
        "NORAD_CAT_ID": 27704,
        "ELEMENT_SET_NO": 999,
        "REV_AT_EPOCH": 16592,
        "BSTAR": 0,
        "MEAN_MOTION_DOT": -6.4e-07,
        "MEAN_MOTION_DDOT": 0
    },
    {
        "OBJECT_NAME": "NAVSTAR 53 (USA 175)",
        "OBJECT_ID": "2003-058A",
        "EPOCH": "2025-11-22T11:48:42.588576",
        "MEAN_MOTION": 1.92678602,
        "ECCENTRICITY": 0.00022761,
        "INCLINATION": 54.8982,
        "RA_OF_ASC_NODE": 30.9288,
        "ARG_OF_PERICENTER": 291.7639,
        "MEAN_ANOMALY": 68.267,
        "EPHEMERIS_TYPE": 0,
        "CLASSIFICATION_TYPE": "U",
        "NORAD_CAT_ID": 28129,
        "ELEMENT_SET_NO": 999,
        "REV_AT_EPOCH": 16048,
        "BSTAR": 0,
        "MEAN_MOTION_DOT": -7.8e-07,
        "MEAN_MOTION_DDOT": 0
    },
    {
        "OBJECT_NAME": "NAVSTAR 54 (USA 177)",
        "OBJECT_ID": "2004-009A",
        "EPOCH": "2025-11-23T20:54:18.695808",
        "MEAN_MOTION": 2.00561542,
        "ECCENTRICITY": 0.0108051,
        "INCLINATION": 55.0031,
        "RA_OF_ASC_NODE": 283.9796,
        "ARG_OF_PERICENTER": 167.3269,
        "MEAN_ANOMALY": 120.8499,
        "EPHEMERIS_TYPE": 0,
        "CLASSIFICATION_TYPE": "U",
        "NORAD_CAT_ID": 28190,
        "ELEMENT_SET_NO": 999,
        "REV_AT_EPOCH": 15882,
        "BSTAR": 0,
        "MEAN_MOTION_DOT": -2.7e-07,
        "MEAN_MOTION_DDOT": 0
    },
    {
        "OBJECT_NAME": "NAVSTAR 55 (USA 178)",
        "OBJECT_ID": "2004-023A",
        "EPOCH": "2025-11-23T05:16:48.756000",
        "MEAN_MOTION": 2.00571767,
        "ECCENTRICITY": 0.0155654,
        "INCLINATION": 54.7226,
        "RA_OF_ASC_NODE": 95.0392,
        "ARG_OF_PERICENTER": 295.5258,
        "MEAN_ANOMALY": 59.4104,
        "EPHEMERIS_TYPE": 0,
        "CLASSIFICATION_TYPE": "U",
        "NORAD_CAT_ID": 28361,
        "ELEMENT_SET_NO": 999,
        "REV_AT_EPOCH": 15690,
        "BSTAR": 0,
        "MEAN_MOTION_DOT": 1.3e-07,
        "MEAN_MOTION_DDOT": 0
    },
    {
        "OBJECT_NAME": "NAVSTAR 56 (USA 180)",
        "OBJECT_ID": "2004-045A",
        "EPOCH": "2025-11-23T08:50:27.121344",
        "MEAN_MOTION": 2.0056869,
        "ECCENTRICITY": 0.0170272,
        "INCLINATION": 55.2501,
        "RA_OF_ASC_NODE": 333.1855,
        "ARG_OF_PERICENTER": 308.4251,
        "MEAN_ANOMALY": 36.3985,
        "EPHEMERIS_TYPE": 0,
        "CLASSIFICATION_TYPE": "U",
        "NORAD_CAT_ID": 28474,
        "ELEMENT_SET_NO": 999,
        "REV_AT_EPOCH": 15429,
        "BSTAR": 0,
        "MEAN_MOTION_DOT": -6.5e-07,
        "MEAN_MOTION_DDOT": 0
    },
    {
        "OBJECT_NAME": "NAVSTAR 57 (USA 183)",
        "OBJECT_ID": "2005-038A",
        "EPOCH": "2025-11-23T23:18:36.628992",
        "MEAN_MOTION": 2.00549545,
        "ECCENTRICITY": 0.0133085,
        "INCLINATION": 55.051,
        "RA_OF_ASC_NODE": 281.4568,
        "ARG_OF_PERICENTER": 293.1855,
        "MEAN_ANOMALY": 86.2536,
        "EPHEMERIS_TYPE": 0,
        "CLASSIFICATION_TYPE": "U",
        "NORAD_CAT_ID": 28874,
        "ELEMENT_SET_NO": 999,
        "REV_AT_EPOCH": 14772,
        "BSTAR": 0,
        "MEAN_MOTION_DOT": -2.4e-07,
        "MEAN_MOTION_DDOT": 0
    },
    {
        "OBJECT_NAME": "NAVSTAR 58 (USA 190)",
        "OBJECT_ID": "2006-042A",
        "EPOCH": "2025-11-23T05:48:58.030848",
        "MEAN_MOTION": 2.00554901,
        "ECCENTRICITY": 0.01073498,
        "INCLINATION": 54.6913,
        "RA_OF_ASC_NODE": 159.5147,
        "ARG_OF_PERICENTER": 51.482,
        "MEAN_ANOMALY": 65.2707,
        "EPHEMERIS_TYPE": 0,
        "CLASSIFICATION_TYPE": "U",
        "NORAD_CAT_ID": 29486,
        "ELEMENT_SET_NO": 999,
        "REV_AT_EPOCH": 14026,
        "BSTAR": 0,
        "MEAN_MOTION_DOT": 7.6e-07,
        "MEAN_MOTION_DDOT": 0
    }
]